NORAD_CAT_ID,OBJECT_NAME,OBJECT_TYPE,EPOCH,MEAN_MOTION,ECCENTRICITY,INCLINATION,RA_OF_ASC_NODE,ARG_OF_PERICENTER,MEAN_ANOMALY,BSTAR,MEAN_MOTION_DOT,MEAN_MOTION_DDOT,TLE_LINE0,TLE_LINE1,TLE_LINE2,SEMIMAJOR_AXIS,PERIOD,APOGEE,PERIGEE,DECAYED
52588.0,STARLINK-3917,PAYLOAD,2024-03-01 14:36:51,15.088384,0.0001405,53.2164,192.4914,90.9579,269.1574,5.3289e-05,5.6e-06,0.0,0 STARLINK-3917,1 52588U 22051BE  24061.60893225  .00000560  00000-0  53289-4 0  9998,2 52588  53.2164 192.4914 0001405  90.9579 269.1574 15.08838400100169,6917.885,95.438,540.722,538.778,0.0
52588.0,STARLINK-3917,PAYLOAD,2024-03-01 16:12:14,15.08840636,0.0001361,53.2168,192.1943,90.168,269.9468,8.0831e-05,9.99e-06,0.0,0 STARLINK-3917,1 52588U 22051BE  24061.67516996  .00000999  00000-0  80831-4 0  9991,2 52588  53.2168 192.1943 0001361  90.1680 269.9468 15.08840636100241,6917.878,95.438,540.685,538.802,0.0
52588.0,STARLINK-3917,PAYLOAD,2024-03-02 14:27:38,15.08847089,0.0001636,53.2174,188.0333,74.6249,285.4924,3.2587e-05,2.31e-06,0.0,0 STARLINK-3917,1 52588U 22051BE  24062.60252674  .00000231  00000-0  32587-4 0  9999,2 52588  53.2174 188.0333 0001636  74.6249 285.4924 15.08847089100315,6917.859,95.437,540.855,538.592,0.0
52588.0,STARLINK-3917,PAYLOAD,2024-03-02 16:03:01,15.08849892,0.0001618,53.2178,187.7369,65.8614,294.2547,4.8093e-05,4.78e-06,0.0,0 STARLINK-3917,1 52588U 22051BE  24062.66876451  .00000478  00000-0  48093-4 0  9992,2 52588  53.2178 187.7369 0001618  65.8614 294.2547 15.08849892100326,6917.85,95.437,540.834,538.596,0.0
52588.0,STARLINK-3917,PAYLOAD,2024-03-03 01:35:20,15.08845445,0.0001433,53.2191,185.9472,86.6695,273.4461,-7.825e-05,-1.533e-05,0.0,0 STARLINK-3917,1 52588U 22051BE  24063.06620772 -.00001533  00000-0 -78250-4 0  9993,2 52588  53.2191 185.9472 0001433  86.6695 273.4461 15.08845445100459,6917.864,95.437,540.72,538.737,0.0
52588.0,STARLINK-3917,PAYLOAD,2024-03-03 07:56:53,15.08831115,0.0001441,53.2189,184.7614,79.4496,280.6659,6.1053e-05,6.84e-06,0.0,0 STARLINK-3917,1 52588U 22051BE  24063.33117383  .00000684  00000-0  61053-4 0  9999,2 52588  53.2189 184.7614 0001441  79.4496 280.6659 15.08831115100491,6917.908,95.438,540.769,538.776,0.0
52588.0,STARLINK-3917,PAYLOAD,2024-03-03 14:18:25,15.08838103,0.0001606,53.2193,183.5732,79.3521,280.7652,1.6452e-05,-2.6e-07,0.0,0 STARLINK-3917,1 52588U 22051BE  24063.59613220 -.00000026  00000-0  16452-4 0  9992,2 52588  53.2193 183.5732 0001606  79.3521 280.7652 15.08838103100460,6917.886,95.438,540.862,538.64,0.0
52588.0,STARLINK-3917,PAYLOAD,2024-03-04 12:33:48,15.08859031,0.0001861,53.2193,179.4064,79.28,280.8401,6.56e-05,7.57e-06,0.0,0 STARLINK-3917,1 52588U 22051BE  24064.52347297  .00000757  00000-0  65600-4 0  9993,2 52588  53.2193 179.4064 0001861  79.2800 280.8401 15.08859031100673,6917.822,95.436,540.975,538.4,0.0
52588.0,STARLINK-3917,PAYLOAD,2024-03-04 14:09:10,15.08862664,0.0001679,53.2194,179.1094,113.3857,246.7311,4.5341e-05,4.34e-06,0.0,0 STARLINK-3917,1 52588U 22051BE  24064.58970851  .00000434  00000-0  45341-4 0  9999,2 52588  53.2194 179.1094 0001679 113.3857 246.7311 15.08862664100614,6917.811,95.436,540.838,538.515,0.0
52588.0,STARLINK-3917,PAYLOAD,2024-03-05 14:00:00,15.08823442,0.0001542,53.2184,174.6481,103.9334,256.1829,-0.00014577,-2.606e-05,0.0,0 STARLINK-3917,1 52588U 22051BE  24065.58334236 -.00002606  00000-0 -14577-3 0  9992,2 52588  53.2184 174.6481 0001542 103.9334 256.1829 15.08823442100763,6917.931,95.439,540.863,538.729,0.0
52588.0,STARLINK-3917,PAYLOAD,2024-03-06 10:40:00,15.08843757,0.0001344,53.2174,170.7846,89.6964,270.4182,-0.00012519,-2.28e-05,0.0,0 STARLINK-3917,1 52588U 22051BE  24066.44445558 -.00002280  00000-0 -12519-3 0  9990,2 52588  53.2174 170.7846 0001344  89.6964 270.4182 15.08843757100967,6917.869,95.437,540.664,538.804,0.0
52588.0,STARLINK-3917,PAYLOAD,2024-03-06 13:50:47,15.08843685,0.0001333,53.2173,170.19,89.5427,270.5718,-0.0001157,-2.129e-05,0.0,0 STARLINK-3917,1 52588U 22051BE  24066.57693530 -.00002129  00000-0 -11570-3 0  9997,2 52588  53.2173 170.1900 0001333  89.5427 270.5718 15.08843685100913,6917.869,95.437,540.656,538.812,0.0
52588.0,STARLINK-3917,PAYLOAD,2024-03-07 13:41:34,15.08840135,0.0001281,53.2169,165.7307,96.8022,263.3116,0.00037596,5.701e-05,0.0,0 STARLINK-3917,1 52588U 22051BE  24067.57053438  .00005701  00000-0  37596-3 0  9998,2 52588  53.2169 165.7307 0001281  96.8022 263.3116 15.08840135101069,6917.88,95.438,540.631,538.859,0.0
52588.0,STARLINK-3917,PAYLOAD,2024-03-08 11:56:58,15.0884086,0.0001354,53.2174,161.5695,95.4851,264.6295,0.00011122,1.483e-05,0.0,0 STARLINK-3917,1 52588U 22051BE  24068.49790108  .00001483  00000-0  11122-3 0  9992,2 52588  53.2174 161.5695 0001354  95.4851 264.6295 15.08840860101275,6917.878,95.438,540.679,538.806,0.0
52588.0,STARLINK-3917,PAYLOAD,2024-03-09 11:47:45,15.08843023,0.0001465,53.2177,157.1075,86.3544,273.7616,-2.8862e-05,-7.47e-06,0.0,0 STARLINK-3917,1 52588U 22051BE  24069.49150169 -.00000747  00000-0 -28862-4 0  9994,2 52588  53.2177 157.1075 0001465  86.3544 273.7616 15.08843023101353,6917.871,95.437,540.75,538.723,0.0
52588.0,STARLINK-3917,PAYLOAD,2024-03-09 14:58:31,15.08850644,0.000127,53.2171,156.5104,79.124,280.9895,4.4869e-07,-2.81e-06,0.0,0 STARLINK-3917,1 52588U 22051BE  24069.62397460 -.00000281  00000-0  44869-6 0  9995,2 52588  53.2171 156.5104 0001270  79.1240 280.9895 15.08850644101446,6917.848,95.437,540.591,538.834,0.0
52588.0,STARLINK-3917,PAYLOAD,2024-03-10 05:17:00,15.0883646,0.0001413,53.2158,153.8346,83.3086,276.8067,-2.4022e-05,-6.7e-06,0.0,0 STARLINK-3917,1 52588U 22051BE  24070.22014677 -.00000670  00000-0 -24022-4 0  9999,2 52588  53.2158 153.8346 0001413  83.3086 276.8067 15.08836460101538,6917.891,95.438,540.734,538.779,0.0
52588.0,STARLINK-3917,PAYLOAD,2024-03-10 11:38:33,15.08837376,0.0001243,53.2152,152.6454,83.7139,276.3994,-1.3691e-05,-5.06e-06,0.0,0 STARLINK-3917,1 52588U 22051BE  24070.48510553 -.00000506  00000-0 -13691-4 0  9999,2 52588  53.2152 152.6454 0001243  83.7139 276.3994 15.08837376101501,6917.888,95.438,540.613,538.894,0.0
52588.0,STARLINK-3917,PAYLOAD,2024-03-11 11:29:19,15.08843926,0.0001311,53.2164,148.185,90.3839,269.7303,0.00025847,3.828e-05,0.0,0 STARLINK-3917,1 52588U 22051BE  24071.47869610  .00003828  00000-0  25847-3 0  9993,2 52588  53.2164 148.1850 0001311  90.3839 269.7303 15.08843926101723,6917.868,95.437,540.64,538.826,0.0
52588.0,STARLINK-3917,PAYLOAD,2024-03-12 04:58:34,15.08838801,0.0001455,53.2142,144.9146,89.2973,270.8186,0.00012694,1.733e-05,0.0,0 STARLINK-3917,1 52588U 22051BE  24072.20734288  .00001733  00000-0  12694-3 0  9996,2 52588  53.2142 144.9146 0001455  89.2973 270.8186 15.08838801101836,6917.884,95.438,540.756,538.743,0.0
52588.0,STARLINK-3917,PAYLOAD,2024-03-12 11:20:07,15.0883739,0.0001409,53.2165,143.725,82.1944,277.9208,0.00013259,1.823e-05,0.0,0 STARLINK-3917,1 52588U 22051BE  24072.47230413  .00001823  00000-0  13259-3 0  9994,2 52588  53.2165 143.7250 0001409  82.1944 277.9208 15.08837390101805,6917.888,95.438,540.728,538.779,0.0
52588.0,STARLINK-3917,PAYLOAD,2024-03-13 11:10:53,15.08843656,0.000142,53.2169,139.2644,83.0403,277.0751,7.4336e-05,8.95e-06,0.0,0 STARLINK-3917,1 52588U 22051BE  24073.46590037  .00000895  00000-0  74336-4 0  9997,2 52588  53.2169 139.2644 0001420  83.0403 277.0751 15.08843656102020,6917.869,95.437,540.717,538.752,0.0
52588.0,STARLINK-3917,PAYLOAD,2024-03-13 14:21:39,15.08847867,0.000155,53.2172,138.67,87.3856,272.7313,5.1706e-05,5.35e-06,0.0,0 STARLINK-3917,1 52588U 22051BE  24073.59837812  .00000535  00000-0  51706-4 0  9993,2 52588  53.2172 138.6700 0001550  87.3856 272.7313 15.08847867101970,6917.856,95.437,540.794,538.649,0.0
52588.0,STARLINK-3917,PAYLOAD,2024-03-13 20:43:11,15.08858317,0.0001526,53.2174,137.4806,82.3253,277.7913,1.3087e-05,-8e-07,0.0,0 STARLINK-3917,1 52588U 22051BE  24073.86332979 -.00000080  00000-0  13087-4 0  9993,2 52588  53.2174 137.4806 0001526  82.3253 277.7913 15.08858317102081,6917.824,95.436,540.745,538.634,0.0
52588.0,STARLINK-3917,PAYLOAD,2024-03-14 04:40:07,15.08847971,0.0001571,53.2176,135.9939,81.0443,279.0726,0.00017574,2.511e-05,0.0,0 STARLINK-3917,1 52588U 22051BE  24074.19453374  .00002511  00000-0  17574-3 0  9997,2 52588  53.2176 135.9939 0001571  81.0443 279.0726 15.08847971102137,6917.856,95.437,540.808,538.634,0.0
52588.0,STARLINK-3917,PAYLOAD,2024-03-14 11:01:39,15.08856571,0.0001623,53.2168,134.8028,80.5227,279.5948,0.0002644,3.924e-05,0.0,0 STARLINK-3917,1 52588U 22051BE  24074.45948957  .00003924  00000-0  26440-3 0  9993,2 52588  53.2168 134.8028 0001623  80.5227 279.5948 15.08856571102101,6917.83,95.437,540.818,538.572,0.0
52588.0,STARLINK-3917,PAYLOAD,2024-03-15 02:55:31,15.08837408,0.0001516,53.2168,131.8291,97.4177,262.6987,-0.00011002,-2.038e-05,0.0,0 STARLINK-3917,1 52588U 22051BE  24075.12189791 -.00002038  00000-0 -11002-3 0  9996,2 52588  53.2168 131.8291 0001516  97.4177 262.6987 15.08837408102274,6917.888,95.438,540.802,538.705,0.0
52588.0,STARLINK-3917,PAYLOAD,2024-03-15 09:17:04,15.08838277,0.0001566,53.2164,130.6397,92.9135,267.2037,-8.6583e-05,-1.666e-05,0.0,0 STARLINK-3917,1 52588U 22051BE  24075.38685779 -.00001666  00000-0 -86583-4 0  9994,2 52588  53.2164 130.6397 0001566  92.9135 267.2037 15.08838277102242,6917.886,95.438,540.834,538.667,0.0
52588.0,STARLINK-3917,PAYLOAD,2024-03-16 10:43:15,15.08835589,0.0001572,53.2161,125.8833,94.5441,265.5731,-6.9429e-05,-1.393e-05,0.0,0 STARLINK-3917,1 52588U 22051BE  24076.44670342 -.00001393  00000-0 -69429-4 0  9999,2 52588  53.2161 125.8833 0001572  94.5441 265.5731 15.08835589102475,6917.894,95.438,540.846,538.671,0.0
52588.0,STARLINK-3917,PAYLOAD,2024-03-16 13:54:01,15.08836792,0.0001562,53.2158,125.2879,99.2619,260.855,-1.1622e-05,-4.73e-06,0.0,0 STARLINK-3917,1 52588U 22051BE  24076.57918328 -.00000473  00000-0 -11622-4 0  9992,2 52588  53.2158 125.2879 0001562  99.2619 260.8550 15.08836792102422,6917.89,95.438,540.836,538.675,0.0
